NORAD_CAT_ID,OBJECT_NAME,OBJECT_TYPE,EPOCH,MEAN_MOTION,ECCENTRICITY,INCLINATION,RA_OF_ASC_NODE,ARG_OF_PERICENTER,MEAN_ANOMALY,BSTAR,MEAN_MOTION_DOT,MEAN_MOTION_DDOT,TLE_LINE0,TLE_LINE1,TLE_LINE2,SEMIMAJOR_AXIS,PERIOD,APOGEE,PERIGEE,DECAYED
52662.0,STARLINK-4044,PAYLOAD,2023-06-25 15:21:00,15.08852278,0.0001123,53.2172,269.6522,95.7741,264.3379,0.00017818,2.55e-05,0.0,0 STARLINK-4044,1 52662U 22053G   23176.63959046  .00002550  00000-0  17818-3 0  9994,2 52662  53.2172 269.6522 0001123  95.7741 264.3379 15.08852278 61888,6917.843,95.437,540.485,538.931,0.0
52662.0,STARLINK-4044,PAYLOAD,2023-06-26 07:14:52,15.08831207,8.59e-05,53.2171,266.6791,92.1781,267.931,3.8699e-05,3.28e-06,0.0,0 STARLINK-4044,1 52662U 22053G   23177.30200217  .00000328  00000-0  38699-4 0  9990,2 52662  53.2171 266.6791 0000859  92.1781 267.9310 15.08831207 61986,6917.907,95.438,540.367,539.178,0.0
52662.0,STARLINK-4044,PAYLOAD,2023-06-27 11:51:49,15.08844252,0.0001104,53.2164,261.3258,100.2354,259.8762,0.00025415,3.76e-05,0.0,0 STARLINK-4044,1 52662U 22053G   23178.49432203  .00003760  00000-0  25415-3 0  9997,2 52662  53.2164 261.3258 0001104 100.2354 259.8762 15.08844252 62165,6917.867,95.437,540.496,538.969,0.0
52662.0,STARLINK-4044,PAYLOAD,2023-06-27 22:59:31,15.08841013,9.87e-05,53.2156,259.2438,96.0531,264.0573,0.00024612,3.631e-05,0.0,0 STARLINK-4044,1 52662U 22053G   23178.95800403  .00003631  00000-0  24612-3 0  9994,2 52662  53.2156 259.2438 0000987  96.0531 264.0573 15.08841013 62237,6917.877,95.437,540.425,539.059,0.0
52662.0,STARLINK-4044,PAYLOAD,2023-06-29 09:58:00,15.08845044,0.0001117,53.2167,252.7008,101.0957,259.0161,8.732e-05,1.102e-05,0.0,0 STARLINK-4044,1 52662U 22053G   23180.41528222  .00001102  00000-0  87320-4 0  9991,2 52662  53.2167 252.7008 0001117 101.0957 259.0161 15.08845044 62454,6917.865,95.437,540.503,538.957,0.0
52662.0,STARLINK-4044,PAYLOAD,2023-06-30 20:56:29,15.08830316,6.3e-05,53.2166,246.1609,107.2396,252.8665,-0.00014708,-2.627e-05,0.0,0 STARLINK-4044,1 52662U 22053G   23181.87256577 -.00002627  00000-0 -14708-3 0  9997,2 52662  53.2166 246.1609 0000630 107.2396 252.8665 15.08830316 62671,6917.91,95.438,540.211,539.339,0.0
52662.0,STARLINK-4044,PAYLOAD,2023-07-01 20:47:17,15.08837541,0.000101,53.2166,241.6989,83.9708,276.1399,6.9728e-05,8.22e-06,0.0,0 STARLINK-4044,1 52662U 22053G   23182.86616942  .00000822  00000-0  69728-4 0  9999,2 52662  53.2166 241.6989 0001010  83.9708 276.1399 15.08837541 62829,6917.888,95.438,540.452,539.054,0.0
52662.0,STARLINK-4044,PAYLOAD,2023-07-02 11:05:44,15.08845271,0.0001016,53.2158,239.0232,86.2055,273.9053,0.00014631,2.042e-05,0.0,0 STARLINK-4044,1 52662U 22053G   23183.46232369  .00002042  00000-0  14631-3 0  9991,2 52662  53.2158 239.0232 0001016  86.2055 273.9053 15.08845271 62910,6917.864,95.437,540.432,539.026,0.0
52662.0,STARLINK-4044,PAYLOAD,2023-07-03 10:56:32,15.08842572,0.0001079,53.2153,234.5619,83.3493,276.7622,0.00015214,2.134e-05,0.0,0 STARLINK-4044,1 52662U 22053G   23184.45592649  .00002134  00000-0  15214-3 0  9991,2 52662  53.2153 234.5619 0001079  83.3493 276.7622 15.08842572 63068,6917.873,95.437,540.484,538.991,0.0
52662.0,STARLINK-4044,PAYLOAD,2023-07-04 15:33:28,15.0884736,9.5e-05,53.2152,229.2098,85.3746,274.7355,5.5913e-05,6.02e-06,0.0,0 STARLINK-4044,1 52662U 22053G   23185.64824352  .00000602  00000-0  55913-4 0  9991,2 52662  53.2152 229.2098 0000950  85.3746 274.7355 15.08847360 63240,6917.858,95.437,540.38,539.066,0.0
52662.0,STARLINK-4044,PAYLOAD,2023-07-04 20:19:38,15.08839566,9.89e-05,53.215,228.3172,83.259,276.8515,6.8452e-05,8.02e-06,0.0,0 STARLINK-4044,1 52662U 22053G   23185.84696824  .00000802  00000-0  68452-4 0  9998,2 52662  53.2150 228.3172 0000989  83.2590 276.8515 15.08839566 63270,6917.882,95.438,540.431,539.063,0.0
52662.0,STARLINK-4044,PAYLOAD,2023-07-06 08:53:30,15.0884377,0.0001089,53.216,221.478,85.8276,274.2841,0.00011081,1.476e-05,0.0,0 STARLINK-4044,1 52662U 22053G   23187.37048690  .00001476  00000-0  11081-3 0  9993,2 52662  53.2160 221.4780 0001089  85.8276 274.2841 15.08843770 63503,6917.869,95.437,540.487,538.981,0.0
52662.0,STARLINK-4044,PAYLOAD,2023-07-07 11:55:03,15.0884438,0.0001074,53.216,216.4228,81.501,278.6104,0.00010213,1.338e-05,0.0,0 STARLINK-4044,1 52662U 22053G   23188.49656659  .00001338  00000-0  10213-3 0  9990,2 52662  53.2160 216.4228 0001074  81.5010 278.6104 15.08844380 63673,6917.867,95.437,540.475,538.989,0.0
52662.0,STARLINK-4044,PAYLOAD,2023-07-08 02:13:31,15.08839608,0.0001104,53.2161,213.7471,79.496,280.6157,5.592e-05,6.02e-06,0.0,0 STARLINK-4044,1 52662U 22053G   23189.09273046  .00000602  00000-0  55920-4 0  9990,2 52662  53.2161 213.7471 0001104  79.4960 280.6157 15.08839608 63766,6917.882,95.438,540.51,538.983,0.0
52662.0,STARLINK-4044,PAYLOAD,2023-07-09 02:04:19,15.0883478,0.00011,53.2162,209.2867,80.6244,279.4872,1.0613e-05,-1.19e-06,0.0,0 STARLINK-4044,1 52662U 22053G   23190.08633484 -.00000119  00000-0  10613-4 0  9991,2 52662  53.2162 209.2867 0001100  80.6244 279.4872 15.08834780 63914,6917.896,95.438,540.522,539.0,0.0
52662.0,STARLINK-4044,PAYLOAD,2023-07-10 11:27:25,15.08837843,0.0001085,53.2159,203.0421,80.9448,279.1667,4.9562e-05,5.01e-06,0.0,0 STARLINK-4044,1 52662U 22053G   23191.47737519  .00000501  00000-0  49562-4 0  9998,2 52662  53.2159 203.0421 0001085  80.9448 279.1667 15.08837843 64125,6917.887,95.438,540.503,539.001,0.0
52662.0,STARLINK-4044,PAYLOAD,2023-07-11 17:39:44,15.08838955,0.0001075,53.2158,197.3919,81.6679,278.4435,7.7004e-05,9.38e-06,0.0,0 STARLINK-4044,1 52662U 22053G   23192.73593529  .00000938  00000-0  77004-4 0  9995,2 52662  53.2158 197.3919 0001075  81.6679 278.4435 15.08838955 64315,6917.884,95.438,540.492,539.005,0.0
52662.0,STARLINK-4044,PAYLOAD,2023-07-13 17:21:18,15.08842458,0.0001152,53.2159,188.4699,84.6799,275.4325,4.7928e-05,4.75e-06,0.0,0 STARLINK-4044,1 52662U 22053G   23194.72313229  .00000475  00000-0  47928-4 0  9991,2 52662  53.2159 188.4699 0001152  84.6799 275.4325 15.08842458 64615,6917.873,95.437,540.535,538.941,0.0
52662.0,STARLINK-4044,PAYLOAD,2023-07-14 09:15:12,15.08813783,0.0001251,53.216,185.4979,80.0827,280.0306,-0.00016413,-2.897e-05,0.0,0 STARLINK-4044,1 52662U 22053G   23195.38555929 -.00002897  00000-0 -16413-3 0  9995,2 52662  53.2160 185.4979 0001251  80.0827 280.0306 15.08813783 64718,6917.961,95.439,540.691,538.96,0.0
52662.0,STARLINK-4044,PAYLOAD,2023-07-14 23:33:39,15.08832143,0.0001309,53.216,182.8212,78.5196,281.5943,-5.3579e-05,-1.14e-05,0.0,0 STARLINK-4044,1 52662U 22053G   23195.98170947 -.00001140  00000-0 -53579-4 0  9999,2 52662  53.2160 182.8212 0001309  78.5196 281.5943 15.08832143 64808,6917.904,95.438,540.675,538.864,0.0
52662.0,STARLINK-4044,PAYLOAD,2023-07-15 15:27:30,15.08839738,0.0001397,53.2163,179.8478,78.6567,281.4582,2.211e-05,6.4e-07,0.0,0 STARLINK-4044,1 52662U 22053G   23196.64410481  .00000064  00000-0  22110-4 0  9992,2 52662  53.2163 179.8478 0001397  78.6567 281.4582 15.08839738 64907,6917.881,95.438,540.713,538.78,0.0
52662.0,STARLINK-4044,PAYLOAD,2023-07-16 10:32:07,15.0884697,0.0001327,53.2164,176.2791,73.0946,287.0192,0.0001407,1.952e-05,0.0,0 STARLINK-4044,1 52662U 22053G   23197.43897936  .00001952  00000-0  14070-3 0  9996,2 52662  53.2164 176.2791 0001327  73.0946 287.0192 15.08846970 65029,6917.859,95.437,540.642,538.806,0.0
52662.0,STARLINK-4044,PAYLOAD,2023-07-17 08:47:31,15.08848305,0.0001548,53.217,172.1162,76.8711,283.2454,0.00018005,2.579e-05,0.0,0 STARLINK-4044,1 52662U 22053G   23198.36634149  .00002579  00000-0  18005-3 0  9992,2 52662  53.2170 172.1162 0001548  76.8711 283.2454 15.08848305 65167,6917.855,95.437,540.791,538.649,0.0
52662.0,STARLINK-4044,PAYLOAD,2023-07-17 15:09:04,15.0884354,0.0001446,53.2161,170.9276,81.9321,278.1835,0.00010658,1.409e-05,0.0,0 STARLINK-4044,1 52662U 22053G   23198.63130542  .00001409  00000-0  10658-3 0  9997,2 52662  53.2161 170.9276 0001446  81.9321 278.1835 15.08843540 65207,6917.87,95.437,540.735,538.734,0.0
52662.0,STARLINK-4044,PAYLOAD,2023-07-19 02:07:33,15.08840587,0.0001732,53.2158,164.3847,87.5137,272.6053,-1.4846e-06,-3.12e-06,0.0,0 STARLINK-4044,1 52662U 22053G   23200.08858256 -.00000312  00000-0 -14846-5 0  9998,2 52662  53.2158 164.3847 0001732  87.5137 272.6053 15.08840587 65422,6917.879,95.438,540.942,538.545,0.0
52662.0,STARLINK-4044,PAYLOAD,2023-07-19 10:04:28,15.08849352,0.0001427,53.2168,162.8976,86.7003,273.4153,4.6249e-05,4.48e-06,0.0,0 STARLINK-4044,1 52662U 22053G   23200.41977837  .00000448  00000-0  46249-4 0  9991,2 52662  53.2168 162.8976 0001427  86.7003 273.4153 15.08849352 65477,6917.852,95.437,540.704,538.73,0.0
52662.0,STARLINK-4044,PAYLOAD,2023-07-21 00:13:44,15.08846257,0.0001407,53.2173,155.7607,93.3505,266.7648,9.8234e-05,1.276e-05,0.0,0 STARLINK-4044,1 52662U 22053G   23202.00954247  .00001276  00000-0  98234-4 0  9999,2 52662  53.2173 155.7607 0001407  93.3505 266.7648 15.08846257 65716,6917.861,95.437,540.7,538.753,0.0
52662.0,STARLINK-4044,PAYLOAD,2023-07-23 23:46:06,15.08832914,0.0001281,53.2159,142.3808,96.0803,264.0335,-5.7624e-05,-1.205e-05,0.0,0 STARLINK-4044,1 52662U 22053G   23204.99035124 -.00001205  00000-0 -57624-4 0  9995,2 52662  53.2159 142.3808 0001281  96.0803 264.0335 15.08832914 66165,6917.902,95.438,540.653,538.881,0.0
52662.0,STARLINK-4044,PAYLOAD,2023-07-25 05:58:25,15.08847202,0.0001158,53.2162,136.7312,91.8141,268.2984,8.3012e-05,1.034e-05,0.0,0 STARLINK-4044,1 52662U 22053G   23206.24890652  .00001034  00000-0  83012-4 0  9998,2 52662  53.2162 136.7312 0001158  91.8141 268.2984 15.08847202 66350,6917.858,95.437,540.524,538.922,0.0
52662.0,STARLINK-4044,PAYLOAD,2023-07-26 04:13:49,15.08840591,0.0001201,53.2157,132.5683,96.818,263.2949,8.5495e-05,1.073e-05,0.0,0 STARLINK-4044,1 52662U 22053G   23207.17627045  .00001073  00000-0  85495-4 0  9995,2 52662  53.2157 132.5683 0001201  96.8180 263.2949 15.08840591 66491,6917.879,95.438,540.574,538.913,0.0
